[{"OBJECT_NAME":"ONEWEB-0320","OBJECT_ID":"2021-083E","EPOCH":"2026-05-12T06:32:32.748864","MEAN_MOTION":13.18686367,"ECCENTRICITY":0.0001751,"INCLINATION":87.9171,"RA_OF_ASC_NODE":342.6119,"ARG_OF_PERICENTER":84.322,"MEAN_ANOMALY":275.8112,"EPHEMERIS_TYPE":0,"CLASSIFICATION_TYPE":"U","NORAD_CAT_ID":49190,"ELEMENT_SET_NO":999,"REV_AT_EPOCH":22524,"BSTAR":3.5777e-05,"MEAN_MOTION_DOT":2.7e-07,"MEAN_MOTION_DDOT":0.0},{"OBJECT_NAME":"ONEWEB-0321","OBJECT_ID":"2021-083F","EPOCH":"2026-05-13T03:00:52.030944","MEAN_MOTION":13.20756719,"ECCENTRICITY":0.0001679,"INCLINATION":87.9158,"RA_OF_ASC_NODE":281.4281,"ARG_OF_PERICENTER":90.943,"MEAN_ANOMALY":269.1895,"EPHEMERIS_TYPE":0,"CLASSIFICATION_TYPE":"U","NORAD_CAT_ID":49191,"ELEMENT_SET_NO":999,"REV_AT_EPOCH":23220,"BSTAR":0.0001247,"MEAN_MOTION_DOT":6.4e-07,"MEAN_MOTION_DDOT":0.0},{"OBJECT_NAME":"ONEWEB-0322","OBJECT_ID":"2021-083G","EPOCH":"2026-05-13T00:54:02.303424","MEAN_MOTION":13.13471578,"ECCENTRICITY":0.0001816,"INCLINATION":87.8939,"RA_OF_ASC_NODE":327.2405,"ARG_OF_PERICENTER":74.8362,"MEAN_ANOMALY":285.2968,"EPHEMERIS_TYPE":0,"CLASSIFICATION_TYPE":"U","NORAD_CAT_ID":49192,"ELEMENT_SET_NO":999,"REV_AT_EPOCH":22630,"BSTAR":-0.00043337,"MEAN_MOTION_DOT":-1.46e-06,"MEAN_MOTION_DDOT":0.0},{"OBJECT_NAME":"ONEWEB-0324","OBJECT_ID":"2021-083H","EPOCH":"2026-05-13T00:06:18.743904","MEAN_MOTION":13.18684851,"ECCENTRICITY":0.0001669,"INCLINATION":87.9182,"RA_OF_ASC_NODE":342.4497,"ARG_OF_PERICENTER":88.736,"MEAN_ANOMALY":271.3964,"EPHEMERIS_TYPE":0,"CLASSIFICATION_TYPE":"U","NORAD_CAT_ID":49193,"ELEMENT_SET_NO":999,"REV_AT_EPOCH":22536,"BSTAR":0.00014469000000000003,"MEAN_MOTION_DOT":7e-07,"MEAN_MOTION_DDOT":0.0},{"OBJECT_NAME":"ONEWEB-0325","OBJECT_ID":"2021-083J","EPOCH":"2026-05-13T00:11:09.581856","MEAN_MOTION":13.18684361,"ECCENTRICITY":0.0001892,"INCLINATION":87.9168,"RA_OF_ASC_NODE":342.4608,"ARG_OF_PERICENTER":85.5201,"MEAN_ANOMALY":274.6147,"EPHEMERIS_TYPE":0,"CLASSIFICATION_TYPE":"U","NORAD_CAT_ID":49194,"ELEMENT_SET_NO":999,"REV_AT_EPOCH":22537,"BSTAR":9.2434e-05,"MEAN_MOTION_DOT":4.9e-07,"MEAN_MOTION_DDOT":0.0},{"OBJECT_NAME":"ONEWEB-0326","OBJECT_ID":"2021-083K","EPOCH":"2026-05-13T00:33:12.517920","MEAN_MOTION":13.18684627,"ECCENTRICITY":0.0002052,"INCLINATION":87.9178,"RA_OF_ASC_NODE":342.4527,"ARG_OF_PERICENTER":91.5787,"MEAN_ANOMALY":268.558,"EPHEMERIS_TYPE":0,"CLASSIFICATION_TYPE":"U","NORAD_CAT_ID":49195,"ELEMENT_SET_NO":999,"REV_AT_EPOCH":22536,"BSTAR":0.00014230000000000002,"MEAN_MOTION_DOT":6.9e-07,"MEAN_MOTION_DDOT":0.0},{"OBJECT_NAME":"ONEWEB-0327","OBJECT_ID":"2021-083L","EPOCH":"2026-05-13T00:32:48.876288","MEAN_MOTION":13.18684931,"ECCENTRICITY":0.0002219,"INCLINATION":87.9172,"RA_OF_ASC_NODE":342.4599,"ARG_OF_PERICENTER":90.3188,"MEAN_ANOMALY":269.8199,"EPHEMERIS_TYPE":0,"CLASSIFICATION_TYPE":"U","NORAD_CAT_ID":49196,"ELEMENT_SET_NO":999,"REV_AT_EPOCH":22538,"BSTAR":8.531100000000001e-05,"MEAN_MOTION_DOT":4.7e-07,"MEAN_MOTION_DDOT":0.0},{"OBJECT_NAME":"ONEWEB-0328","OBJECT_ID":"2021-083M","EPOCH":"2026-05-13T00:39:24.475968","MEAN_MOTION":13.13471162,"ECCENTRICITY":0.0001663,"INCLINATION":87.8955,"RA_OF_ASC_NODE":327.2118,"ARG_OF_PERICENTER":92.0395,"MEAN_ANOMALY":268.0925,"EPHEMERIS_TYPE":0,"CLASSIFICATION_TYPE":"U","NORAD_CAT_ID":49197,"ELEMENT_SET_NO":999,"REV_AT_EPOCH":22628,"BSTAR":-0.00082575,"MEAN_MOTION_DOT":-2.89e-06,"MEAN_MOTION_DDOT":0.0},{"OBJECT_NAME":"ONEWEB-0331","OBJECT_ID":"2021-083N","EPOCH":"2026-05-13T00:23:17.847456","MEAN_MOTION":13.18684531,"ECCENTRICITY":0.0001985,"INCLINATION":87.9175,"RA_OF_ASC_NODE":342.4476,"ARG_OF_PERICENTER":96.4113,"MEAN_ANOMALY":263.7245,"EPHEMERIS_TYPE":0,"CLASSIFICATION_TYPE":"U","NORAD_CAT_ID":49198,"ELEMENT_SET_NO":999,"REV_AT_EPOCH":22537,"BSTAR":7.7255e-05,"MEAN_MOTION_DOT":4.3e-07,"MEAN_MOTION_DDOT":0.0},{"OBJECT_NAME":"ONEWEB-0333","OBJECT_ID":"2021-083P","EPOCH":"2026-05-13T00:32:04.914240","MEAN_MOTION":13.13471701,"ECCENTRICITY":0.0001805,"INCLINATION":87.8941,"RA_OF_ASC_NODE":327.2425,"ARG_OF_PERICENTER":88.2841,"MEAN_ANOMALY":271.8495,"EPHEMERIS_TYPE":0,"CLASSIFICATION_TYPE":"U","NORAD_CAT_ID":49199,"ELEMENT_SET_NO":999,"REV_AT_EPOCH":22629,"BSTAR":-0.00065497,"MEAN_MOTION_DOT":-2.26e-06,"MEAN_MOTION_DDOT":0.0},{"OBJECT_NAME":"ONEWEB-0334","OBJECT_ID":"2021-083Q","EPOCH":"2026-05-13T03:26:10.886784","MEAN_MOTION":13.20718022,"ECCENTRICITY":0.0001706,"INCLINATION":87.9154,"RA_OF_ASC_NODE":281.4374,"ARG_OF_PERICENTER":67.8158,"MEAN_ANOMALY":292.3156,"EPHEMERIS_TYPE":0,"CLASSIFICATION_TYPE":"U","NORAD_CAT_ID":49200,"ELEMENT_SET_NO":999,"REV_AT_EPOCH":23216,"BSTAR":1.9327e-05,"MEAN_MOTION_DOT":2.1e-07,"MEAN_MOTION_DDOT":0.0},{"OBJECT_NAME":"ONEWEB-0335","OBJECT_ID":"2021-083R","EPOCH":"2026-05-13T00:24:46.443744","MEAN_MOTION":13.13468751,"ECCENTRICITY":0.000187,"INCLINATION":87.8944,"RA_OF_ASC_NODE":327.2402,"ARG_OF_PERICENTER":94.2268,"MEAN_ANOMALY":265.9075,"EPHEMERIS_TYPE":0,"CLASSIFICATION_TYPE":"U","NORAD_CAT_ID":49201,"ELEMENT_SET_NO":999,"REV_AT_EPOCH":22630,"BSTAR":-0.00035046,"MEAN_MOTION_DOT":-1.15e-06,"MEAN_MOTION_DDOT":0.0},{"OBJECT_NAME":"ONEWEB-0336","OBJECT_ID":"2021-083S","EPOCH":"2026-05-13T01:33:02.923488","MEAN_MOTION":13.13471021,"ECCENTRICITY":0.0001896,"INCLINATION":87.8941,"RA_OF_ASC_NODE":327.2268,"ARG_OF_PERICENTER":101.68,"MEAN_ANOMALY":258.4542,"EPHEMERIS_TYPE":0,"CLASSIFICATION_TYPE":"U","NORAD_CAT_ID":49202,"ELEMENT_SET_NO":999,"REV_AT_EPOCH":22630,"BSTAR":0.0011654,"MEAN_MOTION_DOT":4.38e-06,"MEAN_MOTION_DDOT":0.0},{"OBJECT_NAME":"ONEWEB-0337","OBJECT_ID":"2021-083T","EPOCH":"2026-05-13T05:26:52.305792","MEAN_MOTION":13.13470525,"ECCENTRICITY":0.0001685,"INCLINATION":87.894,"RA_OF_ASC_NODE":327.2012,"ARG_OF_PERICENTER":95.0073,"MEAN_ANOMALY":265.1248,"EPHEMERIS_TYPE":0,"CLASSIFICATION_TYPE":"U","NORAD_CAT_ID":49203,"ELEMENT_SET_NO":999,"REV_AT_EPOCH":22632,"BSTAR":0.00064496,"MEAN_MOTION_DOT":2.48e-06,"MEAN_MOTION_DDOT":0.0},{"OBJECT_NAME":"ONEWEB-0338","OBJECT_ID":"2021-083U","EPOCH":"2026-05-13T02:49:02.114976","MEAN_MOTION":13.20827038,"ECCENTRICITY":0.0001734,"INCLINATION":87.9152,"RA_OF_ASC_NODE":281.4469,"ARG_OF_PERICENTER":87.0518,"MEAN_ANOMALY":273.0814,"EPHEMERIS_TYPE":0,"CLASSIFICATION_TYPE":"U","NORAD_CAT_ID":49204,"ELEMENT_SET_NO":999,"REV_AT_EPOCH":23218,"BSTAR":-7.0409e-05,"MEAN_MOTION_DOT":-1.6e-07,"MEAN_MOTION_DDOT":0.0},{"OBJECT_NAME":"ONEWEB-0339","OBJECT_ID":"2021-083V","EPOCH":"2026-05-13T00:10:09.427584","MEAN_MOTION":13.13470395,"ECCENTRICITY":0.0001606,"INCLINATION":87.8943,"RA_OF_ASC_NODE":327.2369,"ARG_OF_PERICENTER":80.1598,"MEAN_ANOMALY":279.9713,"EPHEMERIS_TYPE":0,"CLASSIFICATION_TYPE":"U","NORAD_CAT_ID":49205,"ELEMENT_SET_NO":999,"REV_AT_EPOCH":22627,"BSTAR":0.00017139,"MEAN_MOTION_DOT":7.5e-07,"MEAN_MOTION_DDOT":0.0}]