ONEWEB-0320             
1 49190U 21083E   26132.27260126  .00000027  00000+0  35777-4 0  9998
2 49190  87.9171 342.6119 0001751  84.3220 275.8112 13.18686367225247
ONEWEB-0321             
1 49191U 21083F   26133.12560221  .00000064  00000+0  12470-3 0  9998
2 49191  87.9158 281.4281 0001679  90.9430 269.1895 13.20756719232208
ONEWEB-0322             
1 49192U 21083G   26133.03752666 -.00000146  00000+0 -43337-3 0  9994
2 49192  87.8939 327.2405 0001816  74.8362 285.2968 13.13471578226303
ONEWEB-0324             
1 49193U 21083H   26133.00438361  .00000070  00000+0  14469-3 0  9993
2 49193  87.9182 342.4497 0001669  88.7360 271.3964 13.18684851225365
ONEWEB-0325             
1 49194U 21083J   26133.00774979  .00000049  00000+0  92434-4 0  9997
2 49194  87.9168 342.4608 0001892  85.5201 274.6147 13.18684361225377
ONEWEB-0326             
1 49195U 21083K   26133.02306155  .00000069  00000+0  14230-3 0  9996
2 49195  87.9178 342.4527 0002052  91.5787 268.5580 13.18684627225361
ONEWEB-0327             
1 49196U 21083L   26133.02278792  .00000047  00000+0  85311-4 0  9997
2 49196  87.9172 342.4599 0002219  90.3188 269.8199 13.18684931225382
ONEWEB-0328             
1 49197U 21083M   26133.02736662 -.00000289  00000+0 -82575-3 0  9991
2 49197  87.8955 327.2118 0001663  92.0395 268.0925 13.13471162226283
ONEWEB-0331             
1 49198U 21083N   26133.01617879  .00000043  00000+0  77255-4 0  9995
2 49198  87.9175 342.4476 0001985  96.4113 263.7245 13.18684531225375
ONEWEB-0333             
1 49199U 21083P   26133.02227910 -.00000226  00000+0 -65497-3 0  9999
2 49199  87.8941 327.2425 0001805  88.2841 271.8495 13.13471701226296
ONEWEB-0334             
1 49200U 21083Q   26133.14318156  .00000021  00000+0  19327-4 0  9991
2 49200  87.9154 281.4374 0001706  67.8158 292.3156 13.20718022232167
ONEWEB-0335             
1 49201U 21083R   26133.01720421 -.00000115  00000+0 -35046-3 0  9991
2 49201  87.8944 327.2402 0001870  94.2268 265.9075 13.13468751226301
ONEWEB-0336             
1 49202U 21083S   26133.06461717  .00000438  00000+0  11654-2 0  9991
2 49202  87.8941 327.2268 0001896 101.6800 258.4542 13.13471021226302
ONEWEB-0337             
1 49203U 21083T   26133.22699428  .00000248  00000+0  64496-3 0  9994
2 49203  87.8940 327.2012 0001685  95.0073 265.1248 13.13470525226321
ONEWEB-0338             
1 49204U 21083U   26133.11738559 -.00000016  00000+0 -70409-4 0  9999
2 49204  87.9152 281.4469 0001734  87.0518 273.0814 13.20827038232186
ONEWEB-0339             
1 49205U 21083V   26133.00705356  .00000075  00000+0  17139-3 0  9990
2 49205  87.8943 327.2369 0001606  80.1598 279.9713 13.13470395226270
